IRIDIUM 166             
1 43570U 18061B   23302.88484163  .00000159  00000+0  49705-4 0  9990
2 43570  86.3924  98.5060 0002041  98.0782 262.0646 14.34216314275618
IRIDIUM 158             
1 43571U 18061C   23303.48104622  .00000187  00000+0  59549-4 0  9995
2 43571  86.3925  98.2654 0002404  97.3353 262.8116 14.34217123275670
IRIDIUM 165             
1 43572U 18061D   23303.50641554  .00000175  00000+0  55285-4 0  9999
2 43572  86.3928  98.2831 0002416  97.1998 262.9473 14.34218207275690
IRIDIUM 155             
1 43573U 18061E   23303.46836156  .00000166  00000+0  52088-4 0  9997
2 43573  86.3923  98.2153 0001841  91.1760 268.9646 14.34217985275662
IRIDIUM 154             
1 43574U 18061F   23302.89118208  .00000162  00000+0  50758-4 0  9993
2 43574  86.3927  98.5435 0002242  86.0078 274.1374 14.34219225275626
IRIDIUM 163             
1 43575U 18061G   23303.50007403 -.00000030  00000+0 -17780-4 0  9991
2 43575  86.3926  98.2343 0002067  90.7591 269.3841 14.34215898275681
IRIDIUM 156             
1 43576U 18061H   23302.91655959  .00000160  00000+0  50194-4 0  9999
2 43576  86.3923  98.4841 0002050  97.6953 262.4476 14.34218683275597
IRIDIUM 164             
1 43577U 18061J   23302.89752751  .00000006  00000+0 -48162-5 0  9998
2 43577  86.3925  98.5175 0002190  95.3862 264.7583 14.34216934275636
